STARLINK-2340           
1 47882U 21021Y   25212.11053024  .00097685  00000+0  18391-2 0  9991
2 47882  53.0465 138.2957 0001287  24.4752 335.6316 15.47762054242995
STARLINK-2342           
1 47883U 21021Z   25211.96898373  .00003393  00000+0  24666-3 0  9994
2 47883  53.0532 191.9626 0001330  87.9947 272.1195 15.06383604242871
STARLINK-2343           
1 47884U 21021AA  25212.21731349  .00000587  00000+0  58314-4 0  9993
2 47884  53.0534 195.8497 0001182  87.1003 273.0121 15.06402623242190
STARLINK-2346           
1 47887U 21021AD  25212.23575557  .00001818  00000+0  14094-3 0  9999
2 47887  53.0539 195.7647 0001414  86.6117 273.5034 15.06383751242202
STARLINK-2354           
1 47894U 21021AL  25212.23297643 -.00002818  00000+0 -17037-3 0  9997
2 47894  53.0543 185.7759 0001441  80.4529 279.6623 15.06401582242346
STARLINK-2355           
1 47895U 21021AM  25212.11133730 -.00004030  00000+0 -25168-3 0  9993
2 47895  53.0540 186.3213 0001716  73.1934 286.9243 15.06418688242322
STARLINK-2356           
1 47896U 21021AN  25212.23712805  .00000772  00000+0  70740-4 0  9997
2 47896  53.0564 200.7604 0001377  97.3999 262.7147 15.06391797242120
STARLINK-2358           
1 47898U 21021AQ  25212.10397546  .00000969  00000+0  83939-4 0  9998
2 47898  53.0540 186.3546 0001520  88.9699 271.1465 15.06403833242327
STARLINK-2361           
1 47901U 21021AT  25212.15651203  .00001641  00000+0  12899-3 0  9995
2 47901  53.0544 176.2043 0001327  87.2622 272.8519 15.06403503242466
STARLINK-2363           
1 47903U 21021AV  25211.63215234  .00000791  00000+0  71985-4 0  9996
2 47903  53.0532 178.4646 0001382  92.4268 267.6879 15.06395217243209
STARLINK-2364           
1 47904U 21021AW  25212.16018047  .00000824  00000+0  74212-4 0  9992
2 47904  53.0542 176.1071 0001438  91.0947 269.0207 15.06404321242475
STARLINK-2367           
1 47907U 21021AZ  25212.23205636  .00000608  00000+0  59716-4 0  9997
2 47907  53.0544 195.7816 0001372  90.6956 269.4190 15.06403906242200
STARLINK-2368           
1 47908U 21021BA  25212.23942584  .00000878  00000+0  77824-4 0  9997
2 47908  53.0537 195.7478 0001257  86.4114 273.7018 15.06405477242200
STARLINK-2370           
1 47910U 21021BC  25212.10770221  .00001432  00000+0  11505-3 0  9993
2 47910  53.0526 186.5025 0001033  85.0326 275.0781 15.06382025242327
STARLINK-2371           
1 47911U 21021BD  25212.50622575  .00001044  00000+0  88951-4 0  9995
2 47911  53.0535 199.7936 0001279  85.0199 275.0936 15.06403898242486
STARLINK-2378           
1 47916U 21021BJ  25212.28181527  .00003475  00000+0  25204-3 0  9993
2 47916  53.0534 175.5598 0001469  88.3140 271.8017 15.06404697242481
STARLINK-2405           
1 47919U 21021BM  25211.94824748  .00001971  00000+0  15117-3 0  9998
2 47919  53.0535 197.0546 0001106  87.1463 272.9652 15.06398782242619
