[{"OBJECT_NAME":"STARLINK-2340","OBJECT_ID":"2021-021Y","EPOCH":"2025-07-31T02:39:09.812736","MEAN_MOTION":15.47762054,"ECCENTRICITY":0.0001287,"INCLINATION":53.0465,"RA_OF_ASC_NODE":138.2957,"ARG_OF_PERICENTER":24.4752,"MEAN_ANOMALY":335.6316,"EPHEMERIS_TYPE":0,"CLASSIFICATION_TYPE":"U","NORAD_CAT_ID":47882,"ELEMENT_SET_NO":999,"REV_AT_EPOCH":24299,"BSTAR":0.0018391,"MEAN_MOTION_DOT":0.00097685,"MEAN_MOTION_DDOT":0},{"OBJECT_NAME":"STARLINK-2342","OBJECT_ID":"2021-021Z","EPOCH":"2025-07-30T23:15:20.194272","MEAN_MOTION":15.06383604,"ECCENTRICITY":0.000133,"INCLINATION":53.0532,"RA_OF_ASC_NODE":191.9626,"ARG_OF_PERICENTER":87.9947,"MEAN_ANOMALY":272.1195,"EPHEMERIS_TYPE":0,"CLASSIFICATION_TYPE":"U","NORAD_CAT_ID":47883,"ELEMENT_SET_NO":999,"REV_AT_EPOCH":24287,"BSTAR":0.00024666,"MEAN_MOTION_DOT":3.393e-5,"MEAN_MOTION_DDOT":0},{"OBJECT_NAME":"STARLINK-2343","OBJECT_ID":"2021-021AA","EPOCH":"2025-07-31T05:12:55.885536","MEAN_MOTION":15.06402623,"ECCENTRICITY":0.0001182,"INCLINATION":53.0534,"RA_OF_ASC_NODE":195.8497,"ARG_OF_PERICENTER":87.1003,"MEAN_ANOMALY":273.0121,"EPHEMERIS_TYPE":0,"CLASSIFICATION_TYPE":"U","NORAD_CAT_ID":47884,"ELEMENT_SET_NO":999,"REV_AT_EPOCH":24219,"BSTAR":5.8314e-5,"MEAN_MOTION_DOT":5.87e-6,"MEAN_MOTION_DDOT":0},{"OBJECT_NAME":"STARLINK-2346","OBJECT_ID":"2021-021AD","EPOCH":"2025-07-31T05:39:29.281248","MEAN_MOTION":15.06383751,"ECCENTRICITY":0.0001414,"INCLINATION":53.0539,"RA_OF_ASC_NODE":195.7647,"ARG_OF_PERICENTER":86.6117,"MEAN_ANOMALY":273.5034,"EPHEMERIS_TYPE":0,"CLASSIFICATION_TYPE":"U","NORAD_CAT_ID":47887,"ELEMENT_SET_NO":999,"REV_AT_EPOCH":24220,"BSTAR":0.00014094,"MEAN_MOTION_DOT":1.818e-5,"MEAN_MOTION_DDOT":0},{"OBJECT_NAME":"STARLINK-2354","OBJECT_ID":"2021-021AL","EPOCH":"2025-07-31T05:35:29.163552","MEAN_MOTION":15.06401582,"ECCENTRICITY":0.0001441,"INCLINATION":53.0543,"RA_OF_ASC_NODE":185.7759,"ARG_OF_PERICENTER":80.4529,"MEAN_ANOMALY":279.6623,"EPHEMERIS_TYPE":0,"CLASSIFICATION_TYPE":"U","NORAD_CAT_ID":47894,"ELEMENT_SET_NO":999,"REV_AT_EPOCH":24234,"BSTAR":-0.00017037,"MEAN_MOTION_DOT":-2.818e-5,"MEAN_MOTION_DDOT":0},{"OBJECT_NAME":"STARLINK-2355","OBJECT_ID":"2021-021AM","EPOCH":"2025-07-31T02:40:19.542720","MEAN_MOTION":15.06418688,"ECCENTRICITY":0.0001716,"INCLINATION":53.054,"RA_OF_ASC_NODE":186.3213,"ARG_OF_PERICENTER":73.1934,"MEAN_ANOMALY":286.9243,"EPHEMERIS_TYPE":0,"CLASSIFICATION_TYPE":"U","NORAD_CAT_ID":47895,"ELEMENT_SET_NO":999,"REV_AT_EPOCH":24232,"BSTAR":-0.00025168,"MEAN_MOTION_DOT":-4.03e-5,"MEAN_MOTION_DDOT":0},{"OBJECT_NAME":"STARLINK-2356","OBJECT_ID":"2021-021AN","EPOCH":"2025-07-31T05:41:27.863520","MEAN_MOTION":15.06391797,"ECCENTRICITY":0.0001377,"INCLINATION":53.0564,"RA_OF_ASC_NODE":200.7604,"ARG_OF_PERICENTER":97.3999,"MEAN_ANOMALY":262.7147,"EPHEMERIS_TYPE":0,"CLASSIFICATION_TYPE":"U","NORAD_CAT_ID":47896,"ELEMENT_SET_NO":999,"REV_AT_EPOCH":24212,"BSTAR":7.074e-5,"MEAN_MOTION_DOT":7.72e-6,"MEAN_MOTION_DDOT":0},{"OBJECT_NAME":"STARLINK-2358","OBJECT_ID":"2021-021AQ","EPOCH":"2025-07-31T02:29:43.479744","MEAN_MOTION":15.06403833,"ECCENTRICITY":0.000152,"INCLINATION":53.054,"RA_OF_ASC_NODE":186.3546,"ARG_OF_PERICENTER":88.9699,"MEAN_ANOMALY":271.1465,"EPHEMERIS_TYPE":0,"CLASSIFICATION_TYPE":"U","NORAD_CAT_ID":47898,"ELEMENT_SET_NO":999,"REV_AT_EPOCH":24232,"BSTAR":8.3939e-5,"MEAN_MOTION_DOT":9.69e-6,"MEAN_MOTION_DDOT":0},{"OBJECT_NAME":"STARLINK-2361","OBJECT_ID":"2021-021AT","EPOCH":"2025-07-31T03:45:22.639392","MEAN_MOTION":15.06403503,"ECCENTRICITY":0.0001327,"INCLINATION":53.0544,"RA_OF_ASC_NODE":176.2043,"ARG_OF_PERICENTER":87.2622,"MEAN_ANOMALY":272.8519,"EPHEMERIS_TYPE":0,"CLASSIFICATION_TYPE":"U","NORAD_CAT_ID":47901,"ELEMENT_SET_NO":999,"REV_AT_EPOCH":24246,"BSTAR":0.00012899,"MEAN_MOTION_DOT":1.641e-5,"MEAN_MOTION_DDOT":0},{"OBJECT_NAME":"STARLINK-2363","OBJECT_ID":"2021-021AV","EPOCH":"2025-07-30T15:10:17.962176","MEAN_MOTION":15.06395217,"ECCENTRICITY":0.0001382,"INCLINATION":53.0532,"RA_OF_ASC_NODE":178.4646,"ARG_OF_PERICENTER":92.4268,"MEAN_ANOMALY":267.6879,"EPHEMERIS_TYPE":0,"CLASSIFICATION_TYPE":"U","NORAD_CAT_ID":47903,"ELEMENT_SET_NO":999,"REV_AT_EPOCH":24320,"BSTAR":7.1985e-5,"MEAN_MOTION_DOT":7.91e-6,"MEAN_MOTION_DDOT":0},{"OBJECT_NAME":"STARLINK-2364","OBJECT_ID":"2021-021AW","EPOCH":"2025-07-31T03:50:39.592608","MEAN_MOTION":15.06404321,"ECCENTRICITY":0.0001438,"INCLINATION":53.0542,"RA_OF_ASC_NODE":176.1071,"ARG_OF_PERICENTER":91.0947,"MEAN_ANOMALY":269.0207,"EPHEMERIS_TYPE":0,"CLASSIFICATION_TYPE":"U","NORAD_CAT_ID":47904,"ELEMENT_SET_NO":999,"REV_AT_EPOCH":24247,"BSTAR":7.4212e-5,"MEAN_MOTION_DOT":8.24e-6,"MEAN_MOTION_DDOT":0},{"OBJECT_NAME":"STARLINK-2367","OBJECT_ID":"2021-021AZ","EPOCH":"2025-07-31T05:34:09.669504","MEAN_MOTION":15.06403906,"ECCENTRICITY":0.0001372,"INCLINATION":53.0544,"RA_OF_ASC_NODE":195.7816,"ARG_OF_PERICENTER":90.6956,"MEAN_ANOMALY":269.419,"EPHEMERIS_TYPE":0,"CLASSIFICATION_TYPE":"U","NORAD_CAT_ID":47907,"ELEMENT_SET_NO":999,"REV_AT_EPOCH":24220,"BSTAR":5.9716e-5,"MEAN_MOTION_DOT":6.08e-6,"MEAN_MOTION_DDOT":0},{"OBJECT_NAME":"STARLINK-2368","OBJECT_ID":"2021-021BA","EPOCH":"2025-07-31T05:44:46.392576","MEAN_MOTION":15.06405477,"ECCENTRICITY":0.0001257,"INCLINATION":53.0537,"RA_OF_ASC_NODE":195.7478,"ARG_OF_PERICENTER":86.4114,"MEAN_ANOMALY":273.7018,"EPHEMERIS_TYPE":0,"CLASSIFICATION_TYPE":"U","NORAD_CAT_ID":47908,"ELEMENT_SET_NO":999,"REV_AT_EPOCH":24220,"BSTAR":7.7824e-5,"MEAN_MOTION_DOT":8.78e-6,"MEAN_MOTION_DDOT":0},{"OBJECT_NAME":"STARLINK-2370","OBJECT_ID":"2021-021BC","EPOCH":"2025-07-31T02:35:05.470944","MEAN_MOTION":15.06382025,"ECCENTRICITY":0.0001033,"INCLINATION":53.0526,"RA_OF_ASC_NODE":186.5025,"ARG_OF_PERICENTER":85.0326,"MEAN_ANOMALY":275.0781,"EPHEMERIS_TYPE":0,"CLASSIFICATION_TYPE":"U","NORAD_CAT_ID":47910,"ELEMENT_SET_NO":999,"REV_AT_EPOCH":24232,"BSTAR":0.00011505,"MEAN_MOTION_DOT":1.432e-5,"MEAN_MOTION_DDOT":0},{"OBJECT_NAME":"STARLINK-2371","OBJECT_ID":"2021-021BD","EPOCH":"2025-07-31T12:08:57.904800","MEAN_MOTION":15.06403898,"ECCENTRICITY":0.0001279,"INCLINATION":53.0535,"RA_OF_ASC_NODE":199.7936,"ARG_OF_PERICENTER":85.0199,"MEAN_ANOMALY":275.0936,"EPHEMERIS_TYPE":0,"CLASSIFICATION_TYPE":"U","NORAD_CAT_ID":47911,"ELEMENT_SET_NO":999,"REV_AT_EPOCH":24248,"BSTAR":8.8951e-5,"MEAN_MOTION_DOT":1.044e-5,"MEAN_MOTION_DDOT":0},{"OBJECT_NAME":"STARLINK-2378","OBJECT_ID":"2021-021BJ","EPOCH":"2025-07-31T06:45:48.839328","MEAN_MOTION":15.06404697,"ECCENTRICITY":0.0001469,"INCLINATION":53.0534,"RA_OF_ASC_NODE":175.5598,"ARG_OF_PERICENTER":88.314,"MEAN_ANOMALY":271.8017,"EPHEMERIS_TYPE":0,"CLASSIFICATION_TYPE":"U","NORAD_CAT_ID":47916,"ELEMENT_SET_NO":999,"REV_AT_EPOCH":24248,"BSTAR":0.00025204,"MEAN_MOTION_DOT":3.475e-5,"MEAN_MOTION_DDOT":0},{"OBJECT_NAME":"STARLINK-2405","OBJECT_ID":"2021-021BM","EPOCH":"2025-07-30T22:45:28.582272","MEAN_MOTION":15.06398782,"ECCENTRICITY":0.0001106,"INCLINATION":53.0535,"RA_OF_ASC_NODE":197.0546,"ARG_OF_PERICENTER":87.1463,"MEAN_ANOMALY":272.9652,"EPHEMERIS_TYPE":0,"CLASSIFICATION_TYPE":"U","NORAD_CAT_ID":47919,"ELEMENT_SET_NO":999,"REV_AT_EPOCH":24261,"BSTAR":0.00015117,"MEAN_MOTION_DOT":1.971e-5,"MEAN_MOTION_DDOT":0}]
